NORAD_CAT_ID,OBJECT_NAME,OBJECT_TYPE,EPOCH,MEAN_MOTION,ECCENTRICITY,INCLINATION,RA_OF_ASC_NODE,ARG_OF_PERICENTER,MEAN_ANOMALY,BSTAR,MEAN_MOTION_DOT,MEAN_MOTION_DDOT,TLE_LINE0,TLE_LINE1,TLE_LINE2,SEMIMAJOR_AXIS,PERIOD,APOGEE,PERIGEE,DECAYED
55413.0,STARLINK-5060,PAYLOAD,2023-10-22 14:04:25,14.98328091,0.0003063,69.9979,115.5873,269.6435,90.4373,6.7235e-05,7.09e-06,0.0,0 STARLINK-5060,1 55413U 23014Y   23295.58641041  .00000709  00000-0  67235-4 0  9991,2 55413  69.9979 115.5873 0003063 269.6435  90.4373 14.98328091 41383,6950.199,96.107,574.193,569.935,0.0
55413.0,STARLINK-5060,PAYLOAD,2023-10-22 22:05:06,14.98332202,0.0003301,69.9981,114.7456,271.0425,89.0356,3.8644e-05,3.68e-06,0.0,0 STARLINK-5060,1 55413U 23014Y   23295.92020849  .00000368  00000-0  38644-4 0  9999,2 55413  69.9981 114.7456 0003301 271.0425  89.0356 14.98332202 41435,6950.186,96.107,574.345,569.757,0.0
55413.0,STARLINK-5060,PAYLOAD,2023-10-23 02:53:30,14.98327996,0.000332,69.9981,114.2405,266.4984,93.5795,4.7532e-05,4.74e-06,0.0,0 STARLINK-5060,1 55413U 23014Y   23296.12049010  .00000474  00000-0  47532-4 0  9997,2 55413  69.9981 114.2405 0003320 266.4984  93.5795 14.98327996 40523,6950.199,96.107,574.372,569.757,0.0
55413.0,STARLINK-5060,PAYLOAD,2023-10-23 22:07:06,14.98373912,0.0003004,69.9981,112.2205,276.8703,83.2114,-0.00070328,-8.484e-05,0.0,0 STARLINK-5060,1 55413U 23014Y   23296.92159888 -.00008484  00000-0 -70328-3 0  9999,2 55413  69.9981 112.2205 0003004 276.8703  83.2114 14.98373912 41589,6950.057,96.104,574.01,569.834,0.0
55413.0,STARLINK-5060,PAYLOAD,2023-10-24 04:31:39,14.98332123,0.0003082,69.9982,111.5471,270.4039,89.6767,3.4413e-06,-5.2e-07,0.0,0 STARLINK-5060,1 55413U 23014Y   23297.18864867 -.00000052  00000-0  34413-5 0  9997,2 55413  69.9982 111.5471 0003082 270.4039  89.6767 14.98332123 40688,6950.186,96.107,574.193,569.909,0.0
55413.0,STARLINK-5060,PAYLOAD,2023-10-24 12:32:19,14.9833119,0.0003077,69.9982,110.7054,270.6035,89.4771,1.984e-05,1.44e-06,0.0,0 STARLINK-5060,1 55413U 23014Y   23297.52244825  .00000144  00000-0  19840-4 0  9998,2 55413  69.9982 110.7054 0003077 270.6035  89.4771 14.98331190 41674,6950.189,96.107,574.193,569.916,0.0
55413.0,STARLINK-5060,PAYLOAD,2023-10-24 14:08:27,14.98332478,0.0003074,69.9982,110.5371,270.6534,89.4273,3.3304e-05,3.04e-06,0.0,0 STARLINK-5060,1 55413U 23014Y   23297.58920697  .00000304  00000-0  33304-4 0  9991,2 55413  69.9982 110.5371 0003074 270.6534  89.4273 14.98332478 41683,6950.185,96.107,574.187,569.914,0.0
55413.0,STARLINK-5060,PAYLOAD,2023-10-25 12:34:20,14.98328346,0.0003069,69.9982,108.1804,270.6147,89.4661,-5.5421e-06,-1.59e-06,0.0,0 STARLINK-5060,1 55413U 23014Y   23298.52384900 -.00000159  00000-0 -55421-5 0  9992,2 55413  69.9982 108.1804 0003069 270.6147  89.4661 14.98328346 40882,6950.198,96.107,574.196,569.93,0.0
55413.0,STARLINK-5060,PAYLOAD,2023-10-25 22:11:08,14.98329969,0.000308,69.9983,107.1705,269.8845,90.1962,-6.0468e-06,-1.65e-06,0.0,0 STARLINK-5060,1 55413U 23014Y   23298.92440779 -.00000165  00000-0 -60468-5 0  9997,2 55413  69.9983 107.1705 0003080 269.8845  90.1962 14.98329969 41886,6950.193,96.107,574.199,569.917,0.0
55413.0,STARLINK-5060,PAYLOAD,2023-10-26 12:36:21,14.98330383,0.0003084,69.9983,105.6555,269.1808,90.8997,1.3343e-06,-7.7e-07,0.0,0 STARLINK-5060,1 55413U 23014Y   23299.52524690 -.00000077  00000-0  13343-5 0  9990,2 55413  69.9983 105.6555 0003084 269.1808  90.8997 14.98330383 41975,6950.192,96.107,574.2,569.913,0.0
55413.0,STARLINK-5060,PAYLOAD,2023-10-26 17:24:45,14.98331757,0.0003096,69.9984,105.1506,270.012,90.0684,7.0272e-06,-9e-08,0.0,0 STARLINK-5060,1 55413U 23014Y   23299.72552578 -.00000009  00000-0  70272-5 0  9997,2 55413  69.9984 105.1506 0003096 270.0120  90.0684 14.98331757 41069,6950.187,96.107,574.204,569.901,0.0
55413.0,STARLINK-5060,PAYLOAD,2023-10-26 20:37:01,14.9833148,0.000311,69.9984,104.8139,270.3406,89.7397,3.1794e-05,2.86e-06,0.0,0 STARLINK-5060,1 55413U 23014Y   23299.85904523  .00000286  00000-0  31794-4 0  9993,2 55413  69.9984 104.8139 0003110 270.3406  89.7397 14.98331480 42020,6950.188,96.107,574.215,569.892,0.0
55413.0,STARLINK-5060,PAYLOAD,2023-10-27 04:37:41,14.98332955,0.0003096,69.9987,103.9716,273.8772,86.2033,9.7812e-06,2.4e-07,0.0,0 STARLINK-5060,1 55413U 23014Y   23300.19284449  .00000024  00000-0  97812-5 0  9995,2 55413  69.9987 103.9716 0003096 273.8772  86.2033 14.98332955 42073,6950.184,96.107,574.201,569.897,0.0
55413.0,STARLINK-5060,PAYLOAD,2023-10-27 20:39:06,14.98277455,0.0003092,69.9986,102.289,272.5221,87.5584,0.00014029,1.579e-05,0.0,0 STARLINK-5060,1 55413U 23014Y   23300.86048731  .00001579  00000-0  14029-3 0  9994,2 55413  69.9986 102.2890 0003092 272.5221  87.5584 14.98277455 42177,6950.355,96.11,574.369,570.071,0.0
55413.0,STARLINK-5060,PAYLOAD,2023-10-28 11:04:16,14.98329657,0.0003223,69.9987,100.7741,269.0754,91.0036,8.3024e-05,8.98e-06,0.0,0 STARLINK-5060,1 55413U 23014Y   23301.46129722  .00000898  00000-0  83024-4 0  9996,2 55413  69.9987 100.7741 0003223 269.0754  91.0036 14.98329657 41324,6950.194,96.107,574.299,569.819,0.0
55413.0,STARLINK-5060,PAYLOAD,2023-10-28 14:16:32,14.98331229,0.0003138,69.9987,100.4375,269.6913,90.3886,0.00010276,1.133e-05,0.0,0 STARLINK-5060,1 55413U 23014Y   23301.59481622  .00001133  00000-0  10276-3 0  9991,2 55413  69.9987 100.4375 0003138 269.6913  90.3886 14.98331229 42281,6950.189,96.107,574.235,569.873,0.0
55413.0,STARLINK-5060,PAYLOAD,2023-10-28 20:41:03,14.98337197,0.0003145,69.9987,99.7641,269.5572,90.5227,0.00013588,1.529e-05,0.0,0 STARLINK-5060,1 55413U 23014Y   23301.86185106  .00001529  00000-0  13588-3 0  9997,2 55413  69.9987  99.7641 0003145 269.5572  90.5227 14.98337197 42321,6950.171,96.107,574.221,569.85,0.0
55413.0,STARLINK-5060,PAYLOAD,2023-10-29 12:42:24,14.98319644,0.0003066,69.9996,98.0815,276.0977,83.9832,0.00057099,6.725e-05,0.0,0 STARLINK-5060,1 55413U 23014Y   23302.52944971  .00006725  00000-0  57099-3 0  9992,2 55413  69.9996  98.0815 0003066 276.0977  83.9832 14.98319644 41481,6950.225,96.108,574.221,569.959,0.0
55413.0,STARLINK-5060,PAYLOAD,2023-10-29 14:18:32,14.98321389,0.0002987,69.9994,97.9129,275.8054,84.2765,0.00057363,6.757e-05,0.0,0 STARLINK-5060,1 55413U 23014Y   23302.59620881  .00006757  00000-0  57363-3 0  9999,2 55413  69.9994  97.9129 0002987 275.8054  84.2765 14.98321389 42433,6950.22,96.108,574.161,570.008,0.0
55413.0,STARLINK-5060,PAYLOAD,2023-10-29 19:06:55,14.98352312,0.0003125,69.9992,97.408,269.8167,90.2634,0.00016488,1.876e-05,0.0,0 STARLINK-5060,1 55413U 23014Y   23302.79647897  .00001876  00000-0  16488-3 0  9997,2 55413  69.9992  97.4080 0003125 269.8167  90.2634 14.98352312 41526,6950.124,96.106,574.161,569.817,0.0
55413.0,STARLINK-5060,PAYLOAD,2023-10-29 20:43:03,14.98353221,0.0003102,69.9993,97.2395,269.7808,90.2996,0.00017927,2.048e-05,0.0,0 STARLINK-5060,1 55413U 23014Y   23302.86323711  .00002048  00000-0  17927-3 0  9992,2 55413  69.9993  97.2395 0003102 269.7808  90.2996 14.98353221 42476,6950.121,96.106,574.142,569.83,0.0
55413.0,STARLINK-5060,PAYLOAD,2023-10-30 11:08:17,14.98335602,0.0003178,69.999,95.724,272.0871,87.9924,-6.7645e-05,-9e-06,0.0,0 STARLINK-5060,1 55413U 23014Y   23303.46409037 -.00000900  00000-0 -67645-4 0  9995,2 55413  69.9990  95.7240 0003178 272.0871  87.9924 14.98335602 41628,6950.176,96.107,574.249,569.832,0.0
55413.0,STARLINK-5060,PAYLOAD,2023-10-30 20:45:05,14.9833254,0.0002923,70.0,94.715,269.3249,90.7575,-8.9223e-05,-1.157e-05,0.0,0 STARLINK-5060,1 55413U 23014Y   23303.86465144 -.00001157  00000-0 -89223-4 0  9991,2 55413  70.0000  94.7150 0002923 269.3249  90.7575 14.98332540 42620,6950.185,96.107,574.082,570.018,0.0
55413.0,STARLINK-5060,PAYLOAD,2023-10-31 12:46:25,14.98340931,0.0002881,69.9997,93.0317,265.9218,94.1612,-0.00011514,-1.467e-05,0.0,0 STARLINK-5060,1 55413U 23014Y   23304.53224317 -.00001467  00000-0 -11514-3 0  9992,2 55413  69.9997  93.0317 0002881 265.9218  94.1612 14.98340931 41789,6950.159,96.106,574.026,570.022,0.0
55413.0,STARLINK-5060,PAYLOAD,2023-10-31 14:22:33,14.98340916,0.0002834,70.0,92.8635,265.7462,94.3373,-0.00010158,-1.305e-05,0.0,0 STARLINK-5060,1 55413U 23014Y   23304.59900238 -.00001305  00000-0 -10158-3 0  9995,2 55413  70.0000  92.8635 0002834 265.7462  94.3373 14.98340916 42739,6950.159,96.106,573.994,570.054,0.0
55413.0,STARLINK-5060,PAYLOAD,2023-10-31 19:10:58,14.98338628,0.0002829,70.0,92.3581,264.565,95.5187,-0.00012835,-1.624e-05,0.0,0 STARLINK-5060,1 55413U 23014Y   23304.79928358 -.00001624  00000-0 -12835-3 0  9998,2 55413  70.0000  92.3581 0002829 264.5650  95.5187 14.98338628 42760,6950.166,96.106,573.997,570.065,0.0
55413.0,STARLINK-5060,PAYLOAD,2023-11-01 12:48:26,14.98326228,0.0002823,69.9997,90.5068,268.2364,91.8471,3.9064e-05,3.73e-06,0.0,0 STARLINK-5060,1 55413U 23014Y   23305.53364522  .00000373  00000-0  39064-4 0  9990,2 55413  69.9997  90.5068 0002823 268.2364  91.8471 14.98326228 41935,6950.205,96.107,574.032,570.108,0.0
55413.0,STARLINK-5060,PAYLOAD,2023-11-01 14:24:34,14.98326993,0.0002976,70.0,90.3388,267.606,92.4758,4.2612e-05,4.15e-06,0.0,0 STARLINK-5060,1 55413U 23014Y   23305.60040432  .00000415  00000-0  42612-4 0  9999,2 55413  70.0000  90.3388 0002976 267.6060  92.4758 14.98326993 42880,6950.202,96.107,574.136,569.999,0.0
55413.0,STARLINK-5060,PAYLOAD,2023-11-01 19:12:59,14.98327589,0.0002755,69.9999,89.8339,265.3282,94.7563,8.3432e-05,9.03e-06,0.0,0 STARLINK-5060,1 55413U 23014Y   23305.80068335  .00000903  00000-0  83432-4 0  9990,2 55413  69.9999  89.8339 0002755 265.3282  94.7563 14.98327589 42914,6950.2,96.107,573.98,570.151,0.0
55413.0,STARLINK-5060,PAYLOAD,2023-11-02 12:50:27,14.98331031,0.0002938,70.0,87.982,270.5809,89.5014,5.7973e-06,-2.4e-07,0.0,0 STARLINK-5060,1 55413U 23014Y   23306.53504319 -.00000024  00000-0  57973-5 0  9995,2 55413  70.0000  87.9820 0002938 270.5809  89.5014 14.98331031 42088,6950.19,96.107,574.097,570.013,0.0
